{
  "norad_id": 57651,
  "name": "STARLINK-30294",
  "history": [
    {
      "epoch": "2026-03-28T17:43:12.119808Z",
      "apogee_km": 483.8975694932442,
      "perigee_km": 482.1489341914594,
      "latitude_deg": 1.0137042538264423e-05,
      "longitude_deg": -118.34386016121958,
      "height_km": 483.0886429014659,
      "semi_major_axis_km": 6861.1602518423515,
      "eccentricity": 0.00012743,
      "inclination_deg": 43.002,
      "raan_deg": 333.6111,
      "arg_perigee_deg": 250.7208,
      "mean_anomaly_deg": 109.3506,
      "mean_motion_rev_day": 15.27588631
    },
    {
      "epoch": "2026-03-29T01:34:00.178176Z",
      "apogee_km": 484.05794031677397,
      "perigee_km": 482.06133209563905,
      "latitude_deg": 2.1992791971774975e-06,
      "longitude_deg": 121.78863628995006,
      "height_km": 482.85135827241623,
      "semi_major_axis_km": 6861.196636206207,
      "eccentricity": 0.0001455,
      "inclination_deg": 43.0053,
      "raan_deg": 331.7661,
      "arg_perigee_deg": 269.1743,
      "mean_anomaly_deg": 90.8942,
      "mean_motion_rev_day": 15.2757648
    },
    {
      "epoch": "2026-03-30T01:06:19.992672Z",
      "apogee_km": 484.54213088753477,
      "perigee_km": 481.5780937350164,
      "latitude_deg": 1.601485252372384e-05,
      "longitude_deg": 122.19828544739406,
      "height_km": 483.30274635091587,
      "semi_major_axis_km": 6861.197112311275,
      "eccentricity": 0.000216,
      "inclination_deg": 43.0079,
      "raan_deg": 326.225,
      "arg_perigee_deg": 251.7299,
      "mean_anomaly_deg": 108.3318,
      "mean_motion_rev_day": 15.27576321
    },
    {
      "epoch": "2026-03-30T01:06:19.993536Z",
      "apogee_km": 484.54219949950584,
      "perigee_km": 481.57802512304534,
      "latitude_deg": 1.6761187524674358e-05,
      "longitude_deg": 122.19828263324116,
      "height_km": 483.30276785762334,
      "semi_major_axis_km": 6861.197112311275,
      "eccentricity": 0.00021601,
      "inclination_deg": 43.0079,
      "raan_deg": 326.225,
      "arg_perigee_deg": 251.7299,
      "mean_anomaly_deg": 108.3318,
      "mean_motion_rev_day": 15.27576321
    },
    {
      "epoch": "2026-03-30T08:57:06.995232Z",
      "apogee_km": 484.4967770337689,
      "perigee_km": 481.62728637473083,
      "latitude_deg": 3.4687779714717984e-05,
      "longitude_deg": 2.3343219627702827,
      "height_km": 483.2149838807582,
      "semi_major_axis_km": 6861.19903170425,
      "eccentricity": 0.00020911,
      "inclination_deg": 43.0079,
      "raan_deg": 324.3791,
      "arg_perigee_deg": 254.8511,
      "mean_anomaly_deg": 105.211,
      "mean_motion_rev_day": 15.2757568
    },
    {
      "epoch": "2026-03-30T16:47:54.020256Z",
      "apogee_km": 484.24146092003866,
      "perigee_km": 481.8831294982883,
      "latitude_deg": 3.218538510023693e-05,
      "longitude_deg": -117.52965795392358,
      "height_km": 483.0961811601843,
      "semi_major_axis_km": 6861.199295209163,
      "eccentricity": 0.00017186,
      "inclination_deg": 43.0077,
      "raan_deg": 322.5333,
      "arg_perigee_deg": 257.4541,
      "mean_anomaly_deg": 102.6119,
      "mean_motion_rev_day": 15.27575592
    },
    {
      "epoch": "2026-03-31T00:38:40.750656Z",
      "apogee_km": 484.21989713716175,
      "perigee_km": 481.8521063342614,
      "latitude_deg": -2.4030231773770246e-05,
      "longitude_deg": 122.60673582979975,
      "height_km": 483.2553599473013,
      "semi_major_axis_km": 6861.173001735711,
      "eccentricity": 0.00017255,
      "inclination_deg": 43.0073,
      "raan_deg": 320.6867,
      "arg_perigee_deg": 248.0916,
      "mean_anomaly_deg": 111.9752,
      "mean_motion_rev_day": 15.27584373
    },
    {
      "epoch": "2026-04-01T00:11:01.826592Z",
      "apogee_km": 484.28757510617015,
      "perigee_km": 481.8526699225313,
      "latitude_deg": 4.8181548476143394e-05,
      "longitude_deg": 123.01347770531098,
      "height_km": 483.013493149073,
      "semi_major_axis_km": 6861.20712251435,
      "eccentricity": 0.00017744,
      "inclination_deg": 43.0072,
      "raan_deg": 315.1479,
      "arg_perigee_deg": 262.182,
      "mean_anomaly_deg": 97.8831,
      "mean_motion_rev_day": 15.27572978
    },
    {
      "epoch": "2026-04-02T15:24:56.136960Z",
      "apogee_km": 484.342652843191,
      "perigee_km": 481.76133631964876,
      "latitude_deg": 3.253540335194437e-05,
      "longitude_deg": -116.30572134305552,
      "height_km": 482.9743442762617,
      "semi_major_axis_km": 6861.188994581419,
      "eccentricity": 0.00018811,
      "inclination_deg": 43.0066,
      "raan_deg": 305.9162,
      "arg_perigee_deg": 263.569,
      "mean_anomaly_deg": 96.4948,
      "mean_motion_rev_day": 15.27579032
    },
    {
      "epoch": "2026-04-02T21:41:33.465984Z",
      "apogee_km": 484.2683580710236,
      "perigee_km": 481.8189165834974,
      "latitude_deg": 3.792755385871138e-06,
      "longitude_deg": 147.80392189246535,
      "height_km": 482.98185474969847,
      "semi_major_axis_km": 6861.18063732726,
      "eccentricity": 0.0001785,
      "inclination_deg": 43.0062,
      "raan_deg": 304.4392,
      "arg_perigee_deg": 262.4673,
      "mean_anomaly_deg": 97.5976,
      "mean_motion_rev_day": 15.27581823
    },
    {
      "epoch": "2026-04-03T14:57:16.479360Z",
      "apogee_km": 483.25748577022114,
      "perigee_km": 482.73055090801336,
      "latitude_deg": -7.664864553296803e-06,
      "longitude_deg": -115.8945357251165,
      "height_km": 482.8085369236497,
      "semi_major_axis_km": 6861.131018339117,
      "eccentricity": 3.84e-05,
      "inclination_deg": 43.002,
      "raan_deg": 300.3789,
      "arg_perigee_deg": 261.5938,
      "mean_anomaly_deg": 98.487,
      "mean_motion_rev_day": 15.27598394
    },
    {
      "epoch": "2026-04-04T14:29:39.318720Z",
      "apogee_km": 484.51843305064995,
      "perigee_km": 481.67102188375156,
      "latitude_deg": -3.888304428843543e-05,
      "longitude_deg": -115.49557381682244,
      "height_km": 482.6233189760793,
      "semi_major_axis_km": 6861.2317274672005,
      "eccentricity": 0.0002075,
      "inclination_deg": 43.0076,
      "raan_deg": 294.8398,
      "arg_perigee_deg": 280.0931,
      "mean_anomaly_deg": 79.9686,
      "mean_motion_rev_day": 15.27564761
    },
    {
      "epoch": "2026-04-05T14:01:58.472256Z",
      "apogee_km": 483.9229448523847,
      "perigee_km": 482.1609940930248,
      "latitude_deg": 2.5505591132761997e-05,
      "longitude_deg": -115.08231115035167,
      "height_km": 482.79096163533336,
      "semi_major_axis_km": 6861.178969472705,
      "eccentricity": 0.0001284,
      "inclination_deg": 43.0061,
      "raan_deg": 289.2995,
      "arg_perigee_deg": 271.8404,
      "mean_anomaly_deg": 88.2301,
      "mean_motion_rev_day": 15.2758238
    },
    {
      "epoch": "2026-04-07T13:06:41.251392Z",
      "apogee_km": 484.3531648169419,
      "perigee_km": 481.90328145636886,
      "latitude_deg": 1.3252284623233288e-05,
      "longitude_deg": -114.2728227786787,
      "height_km": 483.0058665833998,
      "semi_major_axis_km": 6861.265223136656,
      "eccentricity": 0.00017853,
      "inclination_deg": 43.0063,
      "raan_deg": 278.2207,
      "arg_perigee_deg": 265.3198,
      "mean_anomaly_deg": 94.745,
      "mean_motion_rev_day": 15.27553575
    },
    {
      "epoch": "2026-04-07T20:57:27.956736Z",
      "apogee_km": 484.236657377136,
      "perigee_km": 481.89973088801526,
      "latitude_deg": -3.4625672928650914e-05,
      "longitude_deg": 125.86438323541658,
      "height_km": 482.95995384684176,
      "semi_major_axis_km": 6861.205194132575,
      "eccentricity": 0.0001703,
      "inclination_deg": 43.0067,
      "raan_deg": 276.3748,
      "arg_perigee_deg": 264.3969,
      "mean_anomaly_deg": 95.6688,
      "mean_motion_rev_day": 15.27573622
    },
    {
      "epoch": "2026-04-08T12:39:01.729440Z",
      "apogee_km": 484.2261859354285,
      "perigee_km": 481.9250724438507,
      "latitude_deg": 1.5237945678623719e-05,
      "longitude_deg": -113.86226208927037,
      "height_km": 482.90970525672304,
      "semi_major_axis_km": 6861.212629189639,
      "eccentricity": 0.00016769,
      "inclination_deg": 43.0064,
      "raan_deg": 272.6833,
      "arg_perigee_deg": 267.1879,
      "mean_anomaly_deg": 92.8781,
      "mean_motion_rev_day": 15.27571139
    },
    {
      "epoch": "2026-04-10T11:43:43.317120Z",
      "apogee_km": 484.1123797550463,
      "perigee_km": 482.01010861302893,
      "latitude_deg": 6.181209165222766e-05,
      "longitude_deg": -113.0488337046554,
      "height_km": 482.8320421476505,
      "semi_major_axis_km": 6861.198244184037,
      "eccentricity": 0.0001532,
      "inclination_deg": 43.0036,
      "raan_deg": 261.6034,
      "arg_perigee_deg": 270.3493,
      "mean_anomaly_deg": 89.7184,
      "mean_motion_rev_day": 15.27575943
    },
    {
      "epoch": "2026-04-11T17:32:42.109152Z",
      "apogee_km": 484.5562957123111,
      "perigee_km": 481.61694751281175,
      "latitude_deg": 1.9049272310908614e-06,
      "longitude_deg": 151.46492005043663,
      "height_km": 482.57374383617486,
      "semi_major_axis_km": 6861.223621612561,
      "eccentricity": 0.0002142,
      "inclination_deg": 43.003,
      "raan_deg": 254.5867,
      "arg_perigee_deg": 281.4004,
      "mean_anomaly_deg": 78.6607,
      "mean_motion_rev_day": 15.27567468
    },
    {
      "epoch": "2026-04-12T17:05:03.033888Z",
      "apogee_km": 484.02134442946954,
      "perigee_km": 482.1490541157327,
      "latitude_deg": -3.280126340619342e-05,
      "longitude_deg": 151.87267749531603,
      "height_km": 482.8158234956664,
      "semi_major_axis_km": 6861.222199272601,
      "eccentricity": 0.00013644,
      "inclination_deg": 43.0033,
      "raan_deg": 249.0484,
      "arg_perigee_deg": 272.8426,
      "mean_anomaly_deg": 87.2269,
      "mean_motion_rev_day": 15.27567943
    },
    {
      "epoch": "2026-04-14T16:09:44.241408Z",
      "apogee_km": 483.98554782472183,
      "perigee_km": 482.1700703862325,
      "latitude_deg": 1.2164997125521055e-05,
      "longitude_deg": 152.6894994941553,
      "height_km": 482.992285518986,
      "semi_major_axis_km": 6861.214809105477,
      "eccentricity": 0.0001323,
      "inclination_deg": 43.0038,
      "raan_deg": 237.9703,
      "arg_perigee_deg": 261.2909,
      "mean_anomaly_deg": 98.7793,
      "mean_motion_rev_day": 15.27570411
    },
    {
      "epoch": "2026-04-15T15:42:05.281056Z",
      "apogee_km": 483.925468186394,
      "perigee_km": 482.2197714749045,
      "latitude_deg": -2.377952602103568e-05,
      "longitude_deg": 153.09707809187543,
      "height_km": 482.8866217637351,
      "semi_major_axis_km": 6861.209619830649,
      "eccentricity": 0.0001243,
      "inclination_deg": 43.0031,
      "raan_deg": 232.4323,
      "arg_perigee_deg": 267.5075,
      "mean_anomaly_deg": 92.5634,
      "mean_motion_rev_day": 15.27572144
    },
    {
      "epoch": "2026-04-16T15:14:25.734048Z",
      "apogee_km": 483.9449472692495,
      "perigee_km": 482.18299086039406,
      "latitude_deg": -3.4365493817323025e-05,
      "longitude_deg": 153.5064349122436,
      "height_km": 482.83956302729746,
      "semi_major_axis_km": 6861.200969064822,
      "eccentricity": 0.0001284,
      "inclination_deg": 43.0027,
      "raan_deg": 226.8936,
      "arg_perigee_deg": 270.0856,
      "mean_anomaly_deg": 89.9848,
      "mean_motion_rev_day": 15.27575033
    },
    {
      "epoch": "2026-04-17T16:20:56.282208Z",
      "apogee_km": 483.93442787161894,
      "perigee_km": 482.2237894714044,
      "latitude_deg": -3.1142836256069688e-06,
      "longitude_deg": 129.93941685260808,
      "height_km": 482.80367364505264,
      "semi_major_axis_km": 6861.216108671511,
      "eccentricity": 0.00012466,
      "inclination_deg": 43.0029,
      "raan_deg": 220.985,
      "arg_perigee_deg": 273.5082,
      "mean_anomaly_deg": 86.5627,
      "mean_motion_rev_day": 15.27569977
    }
  ]
}